{
  "version": 0.6,
  "generator": "Overpass API",
  "osm3s": {
    "timestamp_osm_base": "2015-06-16T13:47:02Z",
    "copyright": "The data included in this document is from www.openstreetmap.org. The data is made available under ODbL."
  },
  "elements": [

{
  "type": "node",
  "id": 393758097,
  "lat": 52.1092099,
  "lon": 5.0890742,
  "tags": {
    "addr:city": "Utrecht",
    "addr:housenumber": "56",
    "addr:postcode": "3553HG",
    "addr:street": "Sweder van Zuylenweg",
    "amenity": "restaurant",
    "cuisine": "regional",
    "fair_trade": "yes",
    "identity": "economy_for_the_common_good",
    "interaction": "buying_and_selling",
    "name": "De Kleine Baron",
    "provides": "food+drink",
    "smoking": "no"
  }
},
{
  "type": "node",
  "id": 665072785,
  "lat": 52.4936415,
  "lon": 13.4397016,
  "tags": {
    "access": "public",
    "addr:city": "Berlin",
    "addr:country": "DE",
    "addr:housenumber": "4",
    "addr:postcode": "10999",
    "addr:street": "Ratiborstraße",
    "amenity": "community_centre",
    "contact:email": "andreas@kiezwandler.de",
    "contact:name": "Andreas Teuchert",
    "contact:phone": "+49 30 61652466",
    "description": "offener Raum für die Nachbarschaft - durch Spenden und selbstgewählte Beiträge finanziert - für Treffen, Workshops, Angebote etc. im Sinne einer nachhaltigen, solidarischen Alltagskultur",
    "fee": "no",
    "identity": "solidarity_economy;transition_initiative;alternatives_to_the_cash_economy;commons;p2p_economy",
    "indoor": "yes",
    "interaction": "bartering;lending;gifting;cousing;diy_and_dit",
    "internet_access": "wlan",
    "internet_access:fee": "no",
    "mode_of_organisation:decision_making": "wer Verantwortung übernimmt, entscheidet, regelmäßige Unterstützer*innen haben Veto",
    "mode_of_organisation:hierarchy_chef": "wer Verantwortung übernimmt, entscheidet, regelmäßige Unterstützer*innen haben Veto",
    "mode_of_organisation:members": "users",
    "mode_of_organisation:ownership_structure": "Miete; wer Verantwortung übernimmt, entscheidet",
    "mode_of_organisation:purpose": "non_profit",
    "mode_of_organisation:scale_of_activity": "regional",
    "mode_of_organisation:self_managed": "yes",
    "name": "WELTRAUM Kiezladen für nachhaltige Alltagskultur",
    "operator": "Kiezwandler in Kreuzberg (Transition Town Ini.)",
    "owner": "Kiezwandler in Kreuzberg",
    "payment:cash": "yes",
    "payment:donations": "yes",
    "production_input:knowledge:free_licence": "yes",
    "production_input:knowledge:p2p_licence": "yes",
    "production_input:knowledge:public_domain": "yes",
    "production_input:money:crowdfunding": "yes",
    "production_input:money:gift": "yes",
    "production_input:natural_recources:democratic": "yes",
    "production_input:natural_recources:fair": "yes",
    "production_input:natural_recources:regional": "partially",
    "production_input:natural_resources:sustainable": "yes",
    "production_input:supply_chain:fair": "partially",
    "production_input:work:ilo_standards": "no",
    "provides": "culture;safety;spaces;objects_of_utility;learning_opportunities;community;participation",
    "smoking": "no",
    "smoking:outside": "yes",
    "start_date": "2009",
    "website": "http://www.kiezweltraum.de",
    "wheelchair": "limited",
    "wheelchair:description": "Straßenniveau, aber 1 Stufe"
  }
},
{
  "type": "node",
  "id": 668061696,
  "lat": 47.0655785,
  "lon": 15.4505767,
  "tags": {
    "addr:city": "Graz",
    "addr:country": "AT",
    "addr:housenumber": "15",
    "addr:postcode": "8010",
    "addr:street": "Brockmanngasse",
    "commons": "hackerspace",
    "contact:email": "realraum@realraum.at",
    "contact:google_plus": "https://plus.google.com/+RealraumAt/",
    "contact:phone": "+43 780 700 888 524",
    "description": "realraum - hackerspace in Graz. Labor für Elektronik, Computer und Technik Geeks",
    "drink:club-mate": "yes",
    "identity": "commons",
    "interaction": "diy_and_dit",
    "internet_access": "yes",
    "leisure": "hackerspace",
    "mode_of_organisation:ownership_structure": "Verein",
    "mode_of_organisation:self_managed": "yes",
    "name": "realraum",
    "operator": "Verein für Technik in Kultur und Gesellschaft",
    "payment:bitcoin": "yes",
    "production_input:knowledge:free_licence": "yes",
    "production_input:knowledge:public_domain": "yes",
    "provides": "learning_opportunities",
    "source": "survey",
    "website": "http://www.realraum.at"
  }
},
{
  "type": "node",
  "id": 762758193,
  "lat": 48.2090656,
  "lon": 16.3427829,
  "tags": {
    "addr:city": "Wien",
    "addr:country": "AT",
    "addr:housenumber": "33",
    "addr:postcode": "1080",
    "addr:street": "Pfeilgasse",
    "identity": "demonetized_economy",
    "interaction": "gifting",
    "name": "Schenke",
    "provides": "objects_of_utility;clothes",
    "shop": "charity",
    "website": "http://www.dieschenke.org/",
    "wheelchair": "no"
  }
},
{
  "type": "node",
  "id": 1144117444,
  "lat": 47.9933054,
  "lon": 7.8403187,
  "tags": {
    "addr:housenumber": "12",
    "amenity": "undefined",
    "contact:email": "info@syndikat.org",
    "contact:fax": "+49 761 22407",
    "contact:phone": "+49 761 281892",
    "identity": "commons",
    "interaction": "renting;cousing",
    "mode_of_organisation:ownership_structure": "GmbH",
    "mode_of_organisation:purpose": "for_members",
    "mode_of_organisation:scale_of_activity": "national",
    "name": "Mietshäuser Syndikat",
    "office": "ngo",
    "production_input:money:ethical_banking": "yes",
    "production_input:money:gift": "partially",
    "production_input:money:others": "private",
    "production_input:natural_recources:democratic": "yes",
    "production_input:natural_recources:fair": "yes",
    "provides": "community",
    "provides:land": "urban",
    "topic": "housing;land",
    "website": "http://www.syndikat.org/",
    "wikipedia": "de:Mietshäuser Syndikat"
  }
},
{
  "type": "node",
  "id": 1373592781,
  "lat": 47.0638340,
  "lon": 15.4423455,
  "tags": {
    "addr:city": "Graz",
    "addr:country": "AT",
    "addr:housenumber": "40",
    "addr:postcode": "8010",
    "addr:street": "Schießstattgasse",
    "commons": "workshop",
    "description": "Offene Werkstatt",
    "identity": "commons",
    "name": "Fahrradküche Graz",
    "opening_hours": "Th 17:00-21:00",
    "payment:bitcoin": "yes",
    "payment:coins": "yes",
    "provides": "objects_of_utility;learning_opportunities",
    "shop": "bicycle",
    "source": "survey",
    "website": "http://www.fahrradkueche.com/"
  }
},
{
  "type": "node",
  "id": 1957080920,
  "lat": 47.0658220,
  "lon": 15.4413690,
  "tags": {
    "addr:city": "Graz",
    "addr:country": "AT",
    "addr:housenumber": "8",
    "addr:postcode": "8010",
    "addr:street": "Schönaugasse",
    "amenity": "studio",
    "club": "yes",
    "commons": "broadcast",
    "contact:email": "office@helsinki.at",
    "contact:fax": "+43 316 830 880 84",
    "contact:phone": "+43 316 830 880",
    "contact:website": "http://helsinki.at/info/kontakt",
    "description": "Verein Freies Radio Steiermark",
    "frequency": "92.6 MHz",
    "identity": "commons",
    "independent": "yes",
    "indoor": "yes",
    "level": "0",
    "name": "Radio Helsinki",
    "opening_hours": "Mo,Fr 09:00-12:00;Tu-Th 08:00-15:00",
    "owner": "Radio Helsinki - Verein Freies Radio Steiermark",
    "provides": "culture",
    "source": "survey",
    "type": "audio",
    "website": "http://helsinki.at/",
    "wheelchair": "yes",
    "wikipedia": "de:Radio Helsinki – Verein freies Radio Steiermark"
  }
},
{
  "type": "node",
  "id": 2014216500,
  "lat": 52.3992731,
  "lon": 13.0518407,
  "tags": {
    "addr:city": "Potsdam",
    "addr:housenumber": "47",
    "addr:postcode": "14467",
    "addr:street": "Lindenstraße",
    "alcohol": "no",
    "amenity": "cafe",
    "contact:facebook": "https://facebook.com/madiapotsdam",
    "cuisine": "regional",
    "diet:vegan": "only",
    "food": "yes",
    "identity": "solidarity_economy;commons;collaborative_economy",
    "interaction": "bartering;gifting;cousing",
    "internet_access": "yes",
    "internet_access:fee": "no",
    "name": "Madia",
    "old_operator": "Madia-Arbeitskreis 2/3 Welt e.V.",
    "operator": "Madia e.V.",
    "organic": "only",
    "provides": "food+drink;water;culture;spaces;clothes;learning_opportunities;participation",
    "smoking": "no",
    "wheelchair": "limited",
    "wheelchair:description": "Barrierfreies WC vorhanden, 1 Stufe am Eingang"
  }
},
{
  "type": "node",
  "id": 2071435836,
  "lat": 47.0625552,
  "lon": 15.4515242,
  "tags": {
    "access": "permissive",
    "addr:city": "Graz",
    "addr:country": "AT",
    "addr:housenumber": "57",
    "addr:postcode": "8010",
    "addr:street": "Münzgrabenstraße",
    "amenity": "cafe",
    "cuisine": "vegetarian",
    "description": "Das Kollektiv-Café",
    "diet:vegan": "yes",
    "diet:vegetarian": "only",
    "facebook:page": "https://www.facebook.com/pages/GMOTA-das-Kollektiv-Caf%C3%A9/496030790419074",
    "identity": "commons",
    "internet_access": "yes",
    "mode_of_organisation:self_managed": "yes",
    "name": "Gmota",
    "note": "Vereinslokal, Jeder willkommen! Kollektivcafé, Werkstätten und Open Space",
    "opening_hours": "Sa,Su 11:00-18:00",
    "phone": "+4368181917493",
    "provides": "food+drink;spaces",
    "smoking": "no",
    "source": "survey",
    "website": "http://www.gmota.at"
  }
},
{
  "type": "node",
  "id": 2338519517,
  "lat": 51.3435572,
  "lon": 9.8574267,
  "tags": {
    "addr:city": "Witzenhausen",
    "addr:country": "DE",
    "addr:housename": "Baustelle für Wandel",
    "addr:housenumber": "20",
    "addr:postcode": "37213",
    "addr:street": "Brückenstraße",
    "identity": "transition_initiative",
    "interaction": "diy_and_dit;cousing;sharing;gifting;lending",
    "name": "Transition Town",
    "provides": "food+drink;water;mobility;culture",
    "topic": "participation",
    "website": "http://ttwitzenhausen.de"
  }
},
{
  "type": "node",
  "id": 2480003652,
  "lat": 47.0661968,
  "lon": 15.4287526,
  "tags": {
    "addr:city": "Graz",
    "addr:country": "AT",
    "addr:housenumber": "42",
    "addr:postcode": "8020",
    "addr:street": "Dreihackengasse",
    "amenity": "cafe",
    "contact:email": "cafe@postgarage.at",
    "contact:phone": "+43 699 11606605",
    "diet:lactose_free": "yes",
    "diet:vegan": "yes",
    "diet:vegetarian": "only",
    "entrance": "yes",
    "identity": "collaborative_economy",
    "name": "Postgarage cafe",
    "opening_hours": "Mo-Su 10:00-22:00; Th-Sa 10:00-01:00",
    "organic": "yes",
    "regional": "yes",
    "source": "website",
    "website": "http://www.postgarage-cafe.at",
    "wheelchair": "limited"
  }
},
{
  "type": "node",
  "id": 2510218855,
  "lat": 47.0753934,
  "lon": 15.4331594,
  "tags": {
    "addr:city": "Graz",
    "addr:country": "AT",
    "addr:housenumber": "45",
    "addr:postcode": "8020",
    "addr:street": "Lendkai",
    "contact:email": "info@spektral.at",
    "contact:phone": "+43 699 1313 8714",
    "diet:vegan": "yes",
    "diet:vegetarian": "only",
    "drink:club-mate": "yes",
    "identity": "commons",
    "internet_access": "terminal;wlan",
    "internet_access:fee": "no",
    "mode_of_organisation:ownership_structure": "Verein",
    "mode_of_organisation:purpose": "non_profit",
    "mode_of_organisation:self_managed": "yes",
    "name": "spektral",
    "opening_hours": "We 17:00-20:00",
    "operator": "Verein Free Future Forces",
    "payment:bitcoin": "yes",
    "provides": "spaces;clothes;community;participation",
    "smoking": "no",
    "source": "survey",
    "website": "http://www.spektral.at",
    "wheelchair": "no"
  }
},
{
  "type": "node",
  "id": 2510383072,
  "lat": 47.0783184,
  "lon": 15.4648553,
  "tags": {
    "addr:city": "Graz",
    "addr:housename": "Pfarrsaal",
    "addr:housenumber": "14",
    "addr:postcode": "8010",
    "addr:street": "Leonhardplatz",
    "commons": "lets",
    "identity": "commons",
    "name": "Talente-Tauschkreis",
    "provides": "learning_opportunities"
  }
},
{
  "type": "node",
  "id": 2510441920,
  "lat": 47.0828378,
  "lon": 15.4325190,
  "tags": {
    "addr:city": "Graz",
    "addr:postcode": "8010",
    "addr:street": "Theodor-Körner-Straße",
    "commons": "food+drink",
    "description": "community supported agriculture",
    "farm_boxes": "pickup",
    "identity": "commons",
    "name": "GeLaWi Kleine Farm (Abholpunkt)",
    "organic": "only",
    "provides": "food+drink",
    "regional": "only",
    "website": "http://www.kleinefarm.org/"
  }
},
{
  "type": "node",
  "id": 2510921900,
  "lat": 47.0693010,
  "lon": 15.4552039,
  "tags": {
    "commons": "food+drink",
    "description": "CSA",
    "farm_boxes": "pickup",
    "identity": "commons",
    "name": "GeLaWi Kleine Farm (Abholpunkt)",
    "provides": "food+drink",
    "website": "http://www.kleinefarm.org/"
  }
},
{
  "type": "node",
  "id": 2510955486,
  "lat": 47.0655561,
  "lon": 15.4505737,
  "tags": {
    "addr:city": "Graz",
    "addr:housenumber": "15",
    "addr:postcode": "8010",
    "addr:street": "Brockmanngasse",
    "commons": "hackerspace",
    "identity": "p2p_economy",
    "interaction": "diy_and_dit",
    "leisure": "hackerspace",
    "mode_of_organisation:self_managed": "yes",
    "name": "Open Biolab Graz Austria (OLGA)",
    "provides": "learning_opportunities",
    "website": "http://olga.realraum.at/"
  }
},
{
  "type": "node",
  "id": 2510959552,
  "lat": 47.0753483,
  "lon": 15.4331565,
  "tags": {
    "addr:city": "Graz",
    "addr:country": "AT",
    "addr:housenumber": "45",
    "addr:postcode": "8020",
    "addr:street": "Lendkai",
    "description": "Offene Werkstatt; Kellereingang, Leiter nach unten",
    "entrance": "side",
    "identity": "commons",
    "interaction": "diy_and_dit",
    "internet_access": "wlan",
    "mode_of_organisation:ownership_structure": "Verein",
    "mode_of_organisation:self_managed": "yes",
    "name": "Traumwerk",
    "operator": "Traumwerk",
    "provides": "learning_opportunities;participation",
    "source": "survey",
    "website": "http://www.traumwerk.in/doku.php",
    "wheelchair": "no"
  }
},
{
  "type": "node",
  "id": 2510965941,
  "lat": 47.0626240,
  "lon": 15.4517579,
  "tags": {
    "description": "Umsonstladen",
    "identity": "commons",
    "interaction": "gifting",
    "mode_of_organisation:self_managed": "yes",
    "name": "Kost-Nix-Laden",
    "opening_hours": "Th-Su 11:00-18:00",
    "provides": "objects_of_utility;clothes"
  }
},
{
  "type": "node",
  "id": 2510966430,
  "lat": 47.0790266,
  "lon": 15.4489017,
  "tags": {
    "amenity": "public_bookcase",
    "commons": "lets",
    "description": "im Unicafe",
    "identity": "commons",
    "interaction": "gifting",
    "name": "Lehrbücher-Tausch-Schenk Regal",
    "provides": "learning_opportunities"
  }
},
{
  "type": "node",
  "id": 2787380196,
  "lat": 45.7758383,
  "lon": 4.8337283,
  "tags": {
    "addr:housenumber": "10",
    "contact:email": "alter.terre@gmail.com",
    "contact:phone": "+33 4 72 87 04 75",
    "identity": "subsistance_economy;permaculture;collaborative_economy",
    "name": "Alter & Terre",
    "provides": "community;participation",
    "shop": "greengrocer",
    "source": "Grand Lyon - 10/2011",
    "website": "http://www.alter-terre.fr/"
  }
},
{
  "type": "node",
  "id": 3132109316,
  "lat": 47.0730821,
  "lon": 15.4045929,
  "tags": {
    "addr:city": "Graz",
    "addr:country": "AT",
    "addr:housenumber": "25",
    "addr:postcode": "8020",
    "addr:street": "Vinzenzgasse",
    "contact:facebook": "https://www.facebook.com/groups/671604246193102/",
    "description": "Lebensmittel-Tauschregal",
    "fee": "no",
    "fridge": "yes",
    "identity": "commons",
    "indoor": "yes",
    "interaction": "gifting",
    "mode_of_organisation:members": "open",
    "mode_of_organisation:self_managed": "yes",
    "name": "Fairteiler",
    "note": "Dieser Punkt ist der Kühlschrank im Gebäude",
    "opening_hours": "Mo 09:00-12:00; Th 16:00-19:00",
    "provides": "food+drink",
    "website": "https://foodsharing.de/karte"
  }
},
{
  "type": "node",
  "id": 3148992172,
  "lat": 47.0784698,
  "lon": 15.4279563,
  "tags": {
    "addr:city": "Graz",
    "addr:country": "AT",
    "addr:housenumber": "2",
    "addr:postcode": "8020",
    "addr:street": "Grüne Gasse",
    "contact:email": "office@lendwirbel.at",
    "end_date": "Oct 2016",
    "identity": "commons",
    "indoor": "yes",
    "interaction": "cousing;diy_and_dit",
    "mode_of_organisation:self_managed": "yes",
    "name": "Lendwirbel Büro",
    "office": "yes",
    "payment:donations": "yes",
    "production_input:money:crowdfunding": "yes",
    "production_input:natural_recources:democratic": "yes",
    "provides": "culture;spaces;learning_opportunities;community;participation",
    "smoking": "yes",
    "smoking:outside": "yes",
    "source": "survey",
    "start_date": "Oct 2014",
    "topic": "culture;community;participation",
    "website": "http://www.lendwirbel.at"
  }
},
{
  "type": "node",
  "id": 3149163417,
  "lat": 47.0765064,
  "lon": 15.4514245,
  "tags": {
    "addr:city": "Graz",
    "addr:country": "AT",
    "addr:housenumber": "6a",
    "addr:postcode": "8010",
    "addr:street": "Schubertstraße",
    "contact:facebook": "https://www.facebook.com/groups/671604246193102/",
    "contact:website": "https://www.facebook.com/groups/671604246193102/?fref=ts",
    "description": "Lebensmittel-Tauschregal",
    "fee": "no",
    "identity": "commons",
    "indoor": "yes",
    "interaction": "gifting",
    "level": "0",
    "mode_of_organisation:members": "open",
    "mode_of_organisation:self_managed": "yes",
    "name": "Fairteiler",
    "opening_hours": "Mo-Fr 08:00-20:00",
    "operator": "Alternativreferat ÖH-Uni Graz",
    "owner": "ÖH-Uni Graz",
    "provides": "food+drink",
    "start_date": "2014",
    "website": "https://foodsharing.de/karte"
  }
},
{
  "type": "node",
  "id": 3149175716,
  "lat": 52.3872960,
  "lon": 4.8880798,
  "tags": {
    "addr:city": "Amsterdam",
    "addr:country": "NL",
    "addr:housenumber": "196",
    "addr:postcode": "1013AV",
    "addr:street": "Realengracht",
    "contact:email": "michel@p2pfoundation.net",
    "contact:name": "James Burke",
    "identity": "commons;p2p_economy",
    "mode_of_organisation:decision_making": "by_consensus",
    "mode_of_organisation:hierarchy_chef": "flat_hierarchy",
    "mode_of_organisation:members": "open",
    "mode_of_organisation:ownership_structure": "Foundation",
    "mode_of_organisation:purpose": "not_for_private_profit",
    "mode_of_organisation:scale_of_activity": "global",
    "mode_of_organisation:self_managed": "yes",
    "name": "P2P Foundation",
    "office": "yes",
    "source": "BAG",
    "source:date": "2014-03-24",
    "start_date": "2006",
    "topic": "learning_opportunities",
    "website": "http://p2pfoundation.net"
  }
},
{
  "type": "node",
  "id": 3149175718,
  "lat": 47.0626103,
  "lon": 15.4516975,
  "tags": {
    "addr:city": "Graz",
    "addr:country": "AT",
    "addr:housenumber": "57",
    "addr:postcode": "8010",
    "addr:street": "Münzgrabenstraße",
    "identity": "commons",
    "indoor": "yes",
    "interaction": "gifting",
    "name": "Offene Samenbank",
    "name:en": "seed bank",
    "operator": "Gmota",
    "start_date": "2013"
  }
},
{
  "type": "node",
  "id": 3149240995,
  "lat": 47.0745949,
  "lon": 15.4435129,
  "tags": {
    "addr:city": "Graz",
    "addr:country": "AT",
    "addr:housenumber": "1",
    "addr:postcode": "8010",
    "addr:street": "Stadtpark",
    "contact:facebook": "https://www.facebook.com/groups/671604246193102/",
    "contact:website": "https://www.facebook.com/groups/671604246193102/?fref=ts",
    "description": "Lebensmittel-Tauschregal",
    "fee": "no",
    "identity": "commons",
    "indoor": "no",
    "interaction": "gifting",
    "mode_of_organisation:members": "open",
    "mode_of_organisation:self_managed": "yes",
    "name": "Fairteiler",
    "opening_hours": "24/7",
    "operator": "Lebensmittelretten Graz",
    "provides": "food+drink",
    "website": "https://foodsharing.de/karte"
  }
},
{
  "type": "node",
  "id": 3149261095,
  "lat": 47.0785193,
  "lon": 15.4280534,
  "tags": {
    "addr:city": "Graz",
    "addr:country": "AT",
    "addr:housenumber": "2",
    "addr:postcode": "8020",
    "addr:street": "Grüne Gasse",
    "description": "Büro Gemeinschaftsgarten",
    "diet:vegetarian": "yes",
    "identity": "transition_initiative",
    "indoor": "yes",
    "mode_of_organisation:members": "users",
    "mode_of_organisation:ownership_structure": "Verein",
    "mode_of_organisation:purpose": "non_profit",
    "mode_of_organisation:scale_of_activity": "regional",
    "mode_of_organisation:self_managed": "yes",
    "name": "Alles Garten",
    "operator": "Verein Alles Garten",
    "payment:donations": "yes",
    "production_input:knowledge:public_domain": "yes",
    "production_input:money:crowdfunding": "yes",
    "production_input:money:gift": "yes",
    "production_input:natural_recources:democratic": "yes",
    "production_input:natural_recources:fair": "yes",
    "production_input:natural_recources:regional": "yes",
    "production_input:natural_resources:sustainable": "yes",
    "provides": "spaces;community;participation",
    "smoking": "no",
    "smoking:outside": "yes",
    "start_date": "Oct 2014",
    "topic": "spaces",
    "wheelchair": "yes"
  }
},
{
  "type": "node",
  "id": 3149261096,
  "lat": 47.0784846,
  "lon": 15.4280561,
  "tags": {
    "addr:city": "Graz",
    "addr:country": "AT",
    "addr:housenumber": "2",
    "addr:postcode": "8020",
    "addr:street": "Grüne Gasse",
    "description": "Vernetzung Grazer Gemeinschaftsgärten - Büro",
    "diet:vegan": "yes",
    "diet:vegetarian": "yes",
    "identity": "transition_initiative",
    "indoor": "yes",
    "mode_of_organisation:hierarchy_chef": "flat_hierarchy",
    "mode_of_organisation:members": "users",
    "mode_of_organisation:ownership_structure": "Verein",
    "mode_of_organisation:purpose": "non_profit",
    "mode_of_organisation:scale_of_activity": "regional",
    "mode_of_organisation:self_managed": "yes",
    "name": "Forum Urbanes Gärtnern",
    "operator": "Verein Forum Urbanes Gärtnern",
    "payment:donations": "yes",
    "production_input:knowledge:public_domain": "yes",
    "production_input:money:crowdfunding": "yes",
    "production_input:money:gift": "yes",
    "production_input:natural_recources:democratic": "yes",
    "production_input:natural_recources:fair": "yes",
    "production_input:natural_recources:regional": "yes",
    "production_input:natural_resources:sustainable": "yes",
    "provides": "culture;spaces;learning_opportunities;community;participation",
    "smoking": "no",
    "smoking:outside": "yes",
    "start_date": "Oct 2014",
    "topic": "spaces",
    "wheelchair": "yes"
  }
},
{
  "type": "node",
  "id": 3149261097,
  "lat": 47.0784998,
  "lon": 15.4280697,
  "tags": {
    "access": "yes",
    "addr:city": "Graz",
    "addr:country": "AT",
    "addr:housenumber": "2",
    "addr:postcode": "8020",
    "addr:street": "Grüne Gasse",
    "contact:email": "info@transitiongraz.org",
    "contact:facebook": "www.facebook.com/transitiongraz",
    "contact:name": "Verein Transition Graz",
    "description": "Netzwerken von Transition Initiativen in Graz",
    "identity": "transition_initiative;commons",
    "indoor": "yes",
    "interaction": "cousing;diy_and_dit",
    "internet_access": "tba",
    "internet_access:fee": "tba",
    "mode_of_organisation:decision_making": "by_consensus",
    "mode_of_organisation:hierarchy_chef": "flat_hierarchy",
    "mode_of_organisation:members": "users",
    "mode_of_organisation:ownership_structure": "Verein",
    "mode_of_organisation:purpose": "non_profit",
    "mode_of_organisation:scale_of_activity": "regional",
    "mode_of_organisation:self_managed": "yes",
    "name": "Transition Graz Büro",
    "office": "yes",
    "operator": "Verein Transition Graz",
    "payment:donations": "yes",
    "payment:none": "yes",
    "provides": "spaces;learning_opportunities;community;participation",
    "smoking": "no",
    "smoking:outside": "yes",
    "start_date": "Dec 2014",
    "topic": "culture;spaces;learning_opportunities;community;participation",
    "website": "http://transitiongraz.org",
    "wheelchair": "yes"
  }
},
{
  "type": "node",
  "id": 3149284518,
  "lat": 50.9276312,
  "lon": 11.5884396,
  "tags": {
    "addr:city": "Jena",
    "addr:country": "DE",
    "addr:housenumber": "2",
    "addr:postcode": "07743",
    "addr:street": "Unterm Markt",
    "contact:website": "http://www.umsonsttraum.org",
    "description": "Umsonstladen",
    "identity": "alternatives_to_the_cash_economy;commons",
    "interaction": "gifting",
    "level": "1",
    "name": "Unsonst(T)Raum",
    "opening_hours": "Mo-Fr 10:00-12:00; Tu 10:00-12:00,16:00-18:00; Th 17:00-19:00",
    "production_input:money:gift": "partially",
    "provides": "safety;objects_of_utility;clothes;learning_opportunities;community;participation",
    "shop": "charity",
    "wheelchair": "no"
  }
},
{
  "type": "node",
  "id": 3149368772,
  "lat": 47.0604520,
  "lon": 15.4556165,
  "tags": {
    "addr:city": "Graz",
    "addr:country": "AT",
    "addr:housenumber": "36",
    "addr:postcode": "8010",
    "addr:street": "Moserhofgasse",
    "contact:facebook": "https://www.facebook.com/groups/671604246193102/",
    "description": "Lebensmittel-Tauschregal",
    "fee": "no",
    "fridge": "yes",
    "identity": "commons",
    "indoor": "no",
    "interaction": "gifting",
    "level": "1",
    "mode_of_organisation:members": "open",
    "mode_of_organisation:self_managed": "yes",
    "name": "Fairteiler",
    "opening_hours": "24/7",
    "provides": "food+drink",
    "website": "https://foodsharing.de/karte"
  }
},
{
  "type": "node",
  "id": 3149368773,
  "lat": 47.0694456,
  "lon": 15.4501062,
  "tags": {
    "addr:city": "Graz",
    "addr:country": "AT",
    "addr:housenumber": "12",
    "addr:postcode": "8010",
    "addr:street": "Rechbauerstraße",
    "contact:facebook": "https://www.facebook.com/groups/671604246193102/",
    "description": "Lebensmittel-Tauschregal",
    "fee": "no",
    "fridge": "yes",
    "identity": "commons",
    "indoor": "yes",
    "interaction": "gifting",
    "mode_of_organisation:members": "open",
    "mode_of_organisation:self_managed": "yes",
    "name": "Fairteiler",
    "opening_hours": "Mo-Th 08:00-16:00; Fr 08:00-14:30",
    "operator": "HTU Graz",
    "owner": "HTU Graz",
    "provides": "food+drink",
    "website": "https://foodsharing.de/karte"
  }
},
{
  "type": "node",
  "id": 3149368774,
  "lat": 47.0784128,
  "lon": 15.4472941,
  "tags": {
    "addr:city": "Graz",
    "addr:country": "AT",
    "addr:housenumber": "25",
    "addr:postcode": "8010",
    "addr:street": "Attemsgasse",
    "contact:facebook": "https://www.facebook.com/groups/671604246193102/",
    "description": "Lebensmittel-Tauschregal",
    "fee": "no",
    "identity": "commons",
    "indoor": "no",
    "interaction": "gifting",
    "mode_of_organisation:members": "open",
    "mode_of_organisation:self_managed": "yes",
    "name": "Fairteiler",
    "opening_hours": "24/7",
    "provides": "food+drink",
    "website": "https://foodsharing.de/karte"
  }
},
{
  "type": "node",
  "id": 3149601076,
  "lat": 47.0468450,
  "lon": 15.4836356,
  "tags": {
    "addr:city": "Graz",
    "addr:country": "AT",
    "addr:housenumber": "182",
    "addr:postcode": "8042",
    "addr:street": "Sankt-Peter-Hauptstraße",
    "club": "yes",
    "contact:email": "mastalier@tele2.at",
    "contact:phone": "+43 316 40260620",
    "description": "Trägerverein der Regionalwährung Styrrion",
    "identity": "community_based_currencies",
    "mode_of_organisation:ownership_structure": "Verein",
    "mode_of_organisation:purpose": "for_members",
    "mode_of_organisation:scale_of_activity": "regional",
    "name": "STYRRION-Service",
    "opening_hours": "We 14:00-15:30; SH,PH off",
    "topic": "participation",
    "website": "http://www.styrrion.at/"
  }
},
{
  "type": "node",
  "id": 3188511029,
  "lat": 47.0786432,
  "lon": 15.4278480,
  "tags": {
    "addr:city": "Graz",
    "addr:country": "AT",
    "addr:housenumber": "2",
    "addr:postcode": "8020",
    "addr:street": "Grüne Gasse",
    "amenity": "fast_food",
    "contact:email": "mail@nahversorgungs.net",
    "contact:phone": "+43 660 47 13 469",
    "description": "Das regionale Bio-Lebensmittel - Netzwerk",
    "diet:vegan": "yes",
    "diet:vegetarian": "yes",
    "end_date": "Oct 2016",
    "identity": "transition_initiative",
    "indoor": "yes",
    "interaction": "rebuying_reselling",
    "mode_of_organisation:hierarchy_chef": "flat_hierarchy",
    "mode_of_organisation:purpose": "not_for_private_profit",
    "mode_of_organisation:scale_of_activity": "regional",
    "mode_of_organisation:self_managed": "yes",
    "name": "Naturgenuss Bioladen",
    "organic": "only",
    "payment:cash": "yes",
    "production_input:natural_recources:fair": "yes",
    "production_input:natural_recources:regional": "yes",
    "production_input:natural_resources:sustainable": "yes",
    "production_input:supply_chain:fair": "yes",
    "provides": "food+drink",
    "regional": "yes",
    "shop": "convenience",
    "source": "survey",
    "start_date": "Oct 2014",
    "website": "http://www.naturgenuss.org",
    "wheelchair": "limited",
    "wheelchair:description": "eine Stufe, 6cm"
  }
},
{
  "type": "node",
  "id": 3188552718,
  "lat": 46.8339495,
  "lon": 15.4754526,
  "tags": {
    "access": "private",
    "addr:city": "St. Nikolai im Sausal",
    "addr:country": "AT",
    "addr:housenumber": "32",
    "addr:postcode": "8505",
    "addr:street": "Flamberg",
    "contact:email": "scott.ulli.klein@gmail.com",
    "contact:name": "Scott und Ulrike Klein",
    "diet:vegan": "yes",
    "diet:vegetarian": "yes",
    "identity": "commons",
    "mode_of_organisation:decision_making": "by_consensus",
    "mode_of_organisation:members": "users",
    "mode_of_organisation:purpose": "non_profit",
    "mode_of_organisation:scale_of_activity": "regional",
    "name": "GeLaWi Kleine Farm",
    "operator": "Kleine Farm",
    "organic": "only",
    "owner": "Kleine Farm",
    "production_input:money:crowdfunding": "partially",
    "production_input:natural_recources:democratic": "yes",
    "production_input:natural_recources:fair": "yes",
    "production_input:natural_recources:regional": "yes",
    "production_input:natural_resources:sustainable": "yes",
    "provides": "food+drink;learning_opportunities;community;participation",
    "start_date": "2011",
    "website": "http://kleinefarm.org"
  }
},
{
  "type": "node",
  "id": 3204538862,
  "lat": 47.0730526,
  "lon": 15.4046403,
  "tags": {
    "addr:city": "Graz",
    "addr:country": "AT",
    "addr:housenumber": "25",
    "addr:postcode": "8020",
    "addr:street": "Vinzenzgasse",
    "contact:facebook": "https://www.facebook.com/groups/671604246193102/",
    "description": "Lebensmittel-Tauschregal",
    "fee": "no",
    "identity": "commons",
    "indoor": "no",
    "interaction": "gifting",
    "mode_of_organisation:members": "open",
    "mode_of_organisation:self_managed": "yes",
    "name": "Fairteiler",
    "note": "Dieser Punkt das Regal vorm Gebäude",
    "opening_hours": "24/7",
    "provides": "food+drink",
    "website": "https://foodsharing.de/karte"
  }
},
{
  "type": "node",
  "id": 3204579510,
  "lat": 47.1348145,
  "lon": 15.3499652,
  "tags": {
    "addr:city": "Gratkorn",
    "addr:country": "AT",
    "addr:housenumber": "1",
    "addr:postcode": "8101",
    "addr:street": "Kirchplatz",
    "contact:email": "kostnixladen.gratkorn@gmx.at",
    "contact:phone": "+43 664 730 15 938",
    "identity": "commons",
    "name": "Kostnixladen Gratkorn",
    "opening_hours": "We 16:30-19:00; Su 09:30-12:00",
    "payment:none": "yes",
    "provides": "objects_of_utility;clothes;knowledge",
    "shop": "convenience",
    "website": "http://kostnixladengratkorn.wordpress.com/"
  }
},
{
  "type": "node",
  "id": 3354681816,
  "lat": 47.0625076,
  "lon": 15.4515190,
  "tags": {
    "addr:city": "Graz",
    "addr:country": "AT",
    "addr:housenumber": "57",
    "addr:postcode": "8010",
    "addr:street": "Münzgrabenstraße",
    "contact:facebook": "https://www.facebook.com/groups/671604246193102/",
    "description": "Lebensmittel-Tauschregal",
    "fee": "no",
    "identity": "commons",
    "indoor": "no",
    "interaction": "gifting",
    "mode_of_organisation:members": "open",
    "mode_of_organisation:self_managed": "yes",
    "name": "Fairteiler",
    "opening_hours": "24/7",
    "provides": "food+drink",
    "website": "https://foodsharing.de/karte"
  }
},
{
  "type": "node",
  "id": 3354681817,
  "lat": 47.0726519,
  "lon": 15.4332793,
  "tags": {
    "addr:city": "Graz",
    "addr:country": "AT",
    "addr:housenumber": "3",
    "addr:postcode": "8010",
    "addr:street": "Mariahilferplatz",
    "contact:facebook": "https://www.facebook.com/groups/671604246193102/",
    "description": "Lebensmittel-Tauschregal",
    "fee": "no",
    "identity": "commons",
    "indoor": "no",
    "interaction": "gifting",
    "mode_of_organisation:members": "open",
    "mode_of_organisation:self_managed": "yes",
    "name": "Fairteiler",
    "opening_hours": "24/7",
    "provides": "food+drink",
    "website": "https://foodsharing.de/karte"
  }
},
{
  "type": "node",
  "id": 3354681818,
  "lat": 47.1348038,
  "lon": 15.3499693,
  "tags": {
    "addr:city": "Gratkorn",
    "addr:country": "AT",
    "addr:housenumber": "1",
    "addr:postcode": "8101",
    "addr:street": "Kirchplatz",
    "contact:facebook": "https://www.facebook.com/groups/671604246193102/",
    "description": "Lebensmittel-Tauschregal",
    "fee": "no",
    "fridge": "yes",
    "identity": "commons",
    "indoor": "yes",
    "interaction": "gifting",
    "mode_of_organisation:members": "open",
    "name": "Fairteiler",
    "opening_hours": "We 16:30-19:00; Su 09:30-12:00",
    "payment:none": "yes",
    "provides": "food+drink",
    "website": "https://foodsharing.de/karte"
  }
},
{
  "type": "node",
  "id": 3354681841,
  "lat": 47.0753824,
  "lon": 15.4331742,
  "tags": {
    "description": "Umsonstladen",
    "identity": "commons",
    "interaction": "gifting",
    "mode_of_organisation:self_managed": "yes",
    "name": "Umverteiler",
    "opening_hours": "We 17:00-20:00",
    "provides": "objects_of_utility;clothes"
  }
},
{
  "type": "node",
  "id": 3354686431,
  "lat": 47.0699507,
  "lon": 15.4288342,
  "tags": {
    "addr:city": "Graz",
    "addr:country": "AT",
    "addr:housenumber": "20",
    "addr:postcode": "8010",
    "addr:street": "Kernstockgasse",
    "contact:facebook": "https://www.facebook.com/groups/671604246193102/",
    "description": "Lebensmittel-Tauschregal",
    "fee": "no",
    "identity": "commons",
    "indoor": "no",
    "interaction": "gifting",
    "mode_of_organisation:members": "open",
    "mode_of_organisation:self_managed": "yes",
    "name": "Fairteiler",
    "opening_hours": "24/7",
    "provides": "food+drink",
    "website": "https://foodsharing.de/karte"
  }
},
{
  "type": "node",
  "id": 3414249300,
  "lat": 52.3774744,
  "lon": 13.1429375,
  "tags": {
    "addr:city": "Potsdam",
    "addr:housenumber": "17",
    "addr:postcode": "14480",
    "addr:street": "Waldhornweg",
    "club": "charity",
    "contact:email": "info@rueckenwind-aspb.de",
    "contact:phone": "033160035010",
    "contact:website": "http://www.aspb-potsdam.de/",
    "identity": "commons",
    "interaction": "lending;gifting;cousing;rebuying_reselling;buying_and_selling",
    "name": "rückenwind-Arbeits- und Sozialprojekte Brandenburg e.V.",
    "provides": "objects_of_utility;learning_opportunities;community",
    "service": "bicycle",
    "shop": "furniture",
    "topic": "learning_opportunities"
  }
},
{
  "type": "node",
  "id": 3487789149,
  "lat": 51.3435371,
  "lon": 9.8574254,
  "tags": {
    "addr:city": "Witzenhausen",
    "addr:housenumber": "20",
    "addr:postcode": "37213",
    "addr:street": "Brückenstraße",
    "identity": "commons",
    "name": "Essens-Verschenk-Regal",
    "provides": "food+drink",
    "topic": "food+drink;community"
  }
},
{
  "type": "node",
  "id": 3493111359,
  "lat": 48.1935628,
  "lon": 16.3550622,
  "tags": {
    "addr:city": "Wien",
    "addr:country": "AT",
    "addr:housenumber": "31",
    "addr:postcode": "1050",
    "addr:street": "Grüngasse",
    "construction": "bank",
    "contact:email": "info@mitgruenden.at",
    "identity": "economy_for_the_common_good",
    "mode_of_organisation:self_managed": "yes",
    "name": "Bank für Gemeinwohl",
    "operator:type": "Genossenschaft",
    "provides": "participation",
    "website": "http://mitgruenden.at"
  }
},
{
  "type": "node",
  "id": 3493403112,
  "lat": 47.0664163,
  "lon": 15.4481338,
  "tags": {
    "addr:city": "Graz",
    "addr:housenumber": "9",
    "addr:postcode": "8010",
    "addr:street": "Dietrichsteinplatz",
    "club": "yes",
    "commons": "office",
    "contact:email": "gruppe.graz@greenpeace.or.at",
    "identity": "Greenpeace",
    "name": "Greenpeace Freiwilligenteam Graz",
    "office": "ngo",
    "provides": "participation",
    "source": "survey",
    "topic": "health;clothes;learning_opportunities;community;land;environment",
    "website": "http://greenpeace.or.at"
  }
},
{
  "type": "node",
  "id": 3498473237,
  "lat": 47.0521752,
  "lon": 15.4275172,
  "tags": {
    "addr:city": "Graz",
    "addr:country": "AT",
    "addr:housenumber": "66",
    "addr:postcode": "8020",
    "addr:street": "Triester Straße",
    "fixme": "genaue Lage",
    "garden:type": "community",
    "identity": "commons",
    "interaction": "cousing",
    "leisure": "garden",
    "name": "Stadtteilzentrum Triesterstraße",
    "provides": "food+drink;participation"
  }
},
{
  "type": "node",
  "id": 3498515298,
  "lat": 47.0449388,
  "lon": 15.4458691,
  "tags": {
    "garden:type": "community",
    "identity": "commons",
    "leisure": "garden",
    "name": "Garten für ALLE - Grünanger",
    "operator": "Sozialmedizinisches Zentrum (SMZ) Liebenau",
    "start_date": "2010"
  }
},
{
  "type": "node",
  "id": 3498515300,
  "lat": 47.0991619,
  "lon": 15.4504645,
  "tags": {
    "addr:city": "Graz",
    "addr:country": "AT",
    "addr:housenumber": "89",
    "addr:postcode": "8043",
    "addr:street": "Mariagrüner Straße",
    "contact:phone": "+43 316 382139",
    "fixme": "genaue Lage",
    "garden:type": "community",
    "identity": "commons",
    "interaction": "cousing",
    "leisure": "garden",
    "name": "Generationen- Mitmach- Garten",
    "operator": "Lieselotte Stauber",
    "owner": "Lieselotte Stauber",
    "provides": "food+drink;community;participation",
    "start_date": "Spring 2011"
  }
},
{
  "type": "node",
  "id": 3499241834,
  "lat": 48.1925720,
  "lon": 16.3366079,
  "tags": {
    "addr:city": "Wien",
    "addr:country": "AT",
    "addr:flats": "14",
    "addr:housenumber": "10",
    "addr:postcode": "1150",
    "addr:street": "Gebrüder-Lang-Gasse",
    "contact:email": "office@getactive.org",
    "contact:facebook": "https://www.facebook.com/getactive",
    "contact:phone": "+43 699 81634148",
    "full_name": "Get Active! für eine nachhaltige Welt",
    "identity": "transition_initiative",
    "name": "Get Active!",
    "topic": "learning_opportunities;participation",
    "website": "http://getactive.org"
  }
},
{
  "type": "node",
  "id": 3505713672,
  "lat": 47.0699946,
  "lon": 15.4288468,
  "tags": {
    "addr:city": "Graz",
    "addr:country": "AT",
    "addr:housenumber": "20",
    "addr:postcode": "8020",
    "addr:street": "Kernstockgasse",
    "contact:email": "nachbarschaften@mur.at",
    "contact:facebook": "https://www.facebook.com/allerleihladen",
    "contact:phone": "+43 676 4068816",
    "fee": "no",
    "identity": "demonetized_economy",
    "interaction": "lending",
    "name": "AllerLEIHLaden",
    "opening_hours": "Tu,We 14:00-18:00; Th 10:00-14:00",
    "provides": "objects_of_utility",
    "shop": "convenience",
    "source": "facebook",
    "start_date": "2.5.2015",
    "website": "http://www.allerleihladen.at"
  }
},
{
  "type": "node",
  "id": 3511936286,
  "lat": 60.1866452,
  "lon": 24.9517121,
  "tags": {
    "addr:city": "Helsinki",
    "addr:housenumber": "15",
    "addr:postcode": "00530",
    "addr:street": "Kaarlenkatu",
    "contact:website": "http://www.omamaa.fi/",
    "description": "Food cooperative & open space",
    "identity": "yes;solidarity_economy;commons",
    "interaction": "diy_and_dit;buying_and_selling;cousing",
    "name": "Oma maa",
    "provides": "food+drink;culture",
    "topic": "food+drink;culture"
  }
},
{
  "type": "node",
  "id": 3514743812,
  "lat": 47.0713329,
  "lon": 15.4253441,
  "tags": {
    "addr:city": "Graz",
    "addr:country": "AT",
    "addr:housenumber": "40",
    "addr:postcode": "8020",
    "addr:street": "Annenstraße",
    "amenity": "public_bookcase",
    "brand": "Bookcrossing",
    "contact:email": "hiden@wiki.at",
    "fixme": "exact position, type, opening hours",
    "identity": "commons",
    "interaction": "bartering;lending;gifting",
    "operator": "wiki.at",
    "provides": "learning_opportunities"
  }
},
{
  "type": "node",
  "id": 3514743813,
  "lat": 47.0716276,
  "lon": 15.4363388,
  "tags": {
    "amenity": "public_bookcase",
    "brand": "Bookcrossing",
    "contact:email": "hiden@wiki.at",
    "covered": "yes",
    "fixme": "exact position",
    "identity": "commons",
    "interaction": "bartering;lending;gifting",
    "location": "outdoor",
    "opening_hours": "24/7",
    "operator": "wiki.at",
    "provides": "learning_opportunities",
    "public_bookcase:type": "shelf",
    "wheelchair": "yes"
  }
},
{
  "type": "node",
  "id": 3514743814,
  "lat": 47.0728198,
  "lon": 15.4010293,
  "tags": {
    "amenity": "public_bookcase",
    "brand": "Bookcrossing",
    "contact:email": "hiden@wiki.at",
    "fixme": "exact position, type, opening hours",
    "identity": "commons",
    "interaction": "bartering;lending;gifting",
    "operator": "wiki.at",
    "provides": "learning_opportunities"
  }
},
{
  "type": "node",
  "id": 3519395356,
  "lat": 48.1918950,
  "lon": 16.3581735,
  "tags": {
    "addr:city": "Wien",
    "addr:country": "AT",
    "addr:housenumber": "6/19",
    "addr:postcode": "1050",
    "addr:street": "Margaretenplatz",
    "club": "yes",
    "contact:email": "info@mutmacherei.net",
    "contact:website": "http://mutmacherei.net/",
    "description": "Verein zur Förderung von Informationen über den gesellschaftlichen, wirtschaftlichen und ökologischen Wandel",
    "identity": "commons",
    "name": "Mutmacherei",
    "topic": "participation"
  }
},
{
  "type": "node",
  "id": 3519628402,
  "lat": 47.0754032,
  "lon": 15.4331578,
  "tags": {
    "addr:city": "Graz",
    "addr:country": "AT",
    "addr:housenumber": "45",
    "addr:postcode": "8020",
    "addr:street": "Lendkai",
    "club": "yes",
    "contact:email": "info@barcamp-graz.at",
    "contact:facebook": "barcampgraz",
    "contact:twitter": "bcgraz",
    "contact:website": "http://barcamp-graz.at",
    "identity": "commons",
    "name": "BarCamp Graz",
    "provides": "participation",
    "start_date": "2014",
    "topic": "learning_opportunities;community;participation;telecommunication"
  }
},
{
  "type": "node",
  "id": 3522003037,
  "lat": 47.0251754,
  "lon": 15.0851955,
  "tags": {
    "addr:housenumber": "543",
    "addr:postcode": "8583",
    "addr:street": "In der Auen",
    "contact:email": "yes",
    "contact:phone": "+43 3144 3545",
    "contact:website": "https://solakoedleroswald.wordpress.com/",
    "description": "Gemeinschaft von Menschen, die einen biologisch dynamischen Hof unterstützen, Veranstaltungen organisieren und eine nachhaltige Lebensmittelversorgung in die Praxis umsetzen.",
    "identity": "solidarity_economy",
    "interaction": "gifting;cousing;rebuying_reselling",
    "name": "Solidarische Landwirtschafts Kooperative Edlerhof",
    "organic": "only",
    "provides": "food+drink;community;participation;land;health;culture",
    "regional": "only"
  }
},
{
  "type": "node",
  "id": 3523163011,
  "lat": 47.0828136,
  "lon": 15.4325610,
  "tags": {
    "addr:city": "Graz",
    "addr:country": "AT",
    "addr:housenumber": "49",
    "addr:postcode": "8010",
    "addr:street": "Theodor-Körner-Straße",
    "club": "foodcoop",
    "commons": "food+drink",
    "contact:email": "foodkoop.graz@gmail.com",
    "description": "Einkaufgemeinschaft",
    "fee": "yes",
    "identity": "commons",
    "indoor": "yes",
    "interaction": "buying_and_selling",
    "name": "Foodcoop Krautkoopf",
    "organic": "yes",
    "provides": "food+drink",
    "regional": "yes",
    "website": "http://www.krautkoopf.at"
  }
},
{
  "type": "node",
  "id": 3563369711,
  "lat": 52.4077208,
  "lon": 13.0655397,
  "tags": {
    "fixme": "exact position",
    "garden:type": "community",
    "identity": "permaculture",
    "leisure": "garden",
    "operator": "Treffpunkt Freizeit"
  }
},
{
  "type": "node",
  "id": 3571408785,
  "lat": 51.3089142,
  "lon": 9.4693738,
  "tags": {
    "addr:city": "Kassel",
    "addr:postcode": "34121",
    "addr:street": "Schönfelder Straße",
    "contact:email": "info@essbare-stadt.de",
    "contact:website": "www.ttkassel.de / www.essbare-stadt.de",
    "identity": "transition_initiative;permaculture;commons;community_based_currencies;degrowth",
    "interaction": "diy_and_dit",
    "name": "Transition Town Kassel / Essbare Stadt e.V."
  }
},
{
  "type": "node",
  "id": 3571432493,
  "lat": 51.3488272,
  "lon": 9.8566714,
  "tags": {
    "identity": "solidarity_economy;permaculture;demonetized_economy;commons;subsistence_economy",
    "interaction": "diy_and_dit;sharing",
    "name": "Transition Town Schaugarten",
    "organic": "only",
    "provides": "food+drink;participation;community"
  }
},
{
  "type": "node",
  "id": 3571437393,
  "lat": 51.2960498,
  "lon": 9.5358644,
  "tags": {
    "addr:city": "Kassel",
    "addr:housenumber": "23",
    "addr:postcode": "34123",
    "addr:street": "Steinigkstraße",
    "contact:email": "yes",
    "contact:website": "yes",
    "description": "urban garden, community garden, 7000qm, Permaculture Forest Garden",
    "identity": "commons",
    "interaction": "sharing",
    "name": "ForstFeldGarten",
    "organic": "yes",
    "topic": "land",
    "wheelchair": "yes"
  }
},
{
  "type": "node",
  "id": 3571632411,
  "lat": 51.3069020,
  "lon": 9.4867205,
  "tags": {
    "addr:city": "Kassel",
    "addr:housenumber": "60",
    "addr:postcode": "34121",
    "addr:street": "Frankfurter Straße",
    "club": "yes",
    "contact:email": "fbi@ku-ki.org",
    "contact:website": "fbi.ku-ki.org",
    "description": "\"im FBI kansst du frei von Erwartungen spielerisch experimentieren und findest Hilfestellung bei der Umsetzung deiner Vorhaben\" Die Ermittlungsabteilungen des FBI sind der Umsonstladen, die MittwochsKüche, die AbholBar, das Repair-Café und das Kino.",
    "identity": "demonetized_economy",
    "interaction": "diy_and_dit",
    "name": "FBI - FachBeschfät für Interaktion",
    "topic": "spaces"
  }
},
{
  "type": "node",
  "id": 3571683293,
  "lat": 51.3152432,
  "lon": 9.4607809,
  "tags": {
    "identity": "commons",
    "name": "Huttenplatz, offener Nachbarschaftsgarten"
  }
},
{
  "type": "node",
  "id": 3571711994,
  "lat": 51.3186475,
  "lon": 9.4962132,
  "tags": {
    "addr:city": "Kassel",
    "addr:housenumber": "2",
    "addr:postcode": "34117",
    "addr:street": "Lutherstraße",
    "contact:website": "yes",
    "identity": "permaculture",
    "interaction": "sharing",
    "name": "plan t - there is plenty for all of us > living sculptue since 2005",
    "topic": "land"
  }
},
{
  "type": "node",
  "id": 3596001046,
  "lat": 52.0887068,
  "lon": 5.1374014,
  "tags": {
    "addr:city": "Utrecht",
    "addr:housenumber": "25",
    "addr:postcode": "3581KK",
    "addr:street": "Burgemeester Reigerstraat",
    "amenity": "cafe",
    "cuisine": "regional",
    "identity": "economy_for_the_common_good",
    "interaction": "buying_and_selling",
    "internet_access": "wlan",
    "name": "HOOI",
    "provides": "food+drink",
    "regional": "yes",
    "smoking": "no"
  }
},
{
  "type": "node",
  "id": 437517021,
  "lat": 47.1004119,
  "lon": 15.4533559
},
{
  "type": "node",
  "id": 437517022,
  "lat": 47.1011685,
  "lon": 15.4529759
},
{
  "type": "node",
  "id": 444726201,
  "lat": 52.5026962,
  "lon": 13.4111246
},
{
  "type": "node",
  "id": 444726203,
  "lat": 52.5029160,
  "lon": 13.4115606
},
{
  "type": "node",
  "id": 766636183,
  "lat": 52.5031438,
  "lon": 13.4120121
},
{
  "type": "node",
  "id": 766636185,
  "lat": 52.5033959,
  "lon": 13.4112768
},
{
  "type": "node",
  "id": 766636187,
  "lat": 52.5032381,
  "lon": 13.4105934
},
{
  "type": "node",
  "id": 766636190,
  "lat": 52.5028414,
  "lon": 13.4102870
},
{
  "type": "node",
  "id": 766636191,
  "lat": 52.5026467,
  "lon": 13.4110266
},
{
  "type": "node",
  "id": 833763318,
  "lat": 47.0784253,
  "lon": 15.4475101
},
{
  "type": "node",
  "id": 836329093,
  "lat": 48.8716341,
  "lon": 2.3849464
},
{
  "type": "node",
  "id": 836331243,
  "lat": 48.8715588,
  "lon": 2.3849599
},
{
  "type": "node",
  "id": 836341691,
  "lat": 48.8716684,
  "lon": 2.3851328
},
{
  "type": "node",
  "id": 836342509,
  "lat": 48.8716775,
  "lon": 2.3851589
},
{
  "type": "node",
  "id": 836350266,
  "lat": 48.8716372,
  "lon": 2.3851624
},
{
  "type": "node",
  "id": 836352929,
  "lat": 48.8715735,
  "lon": 2.3849989
},
{
  "type": "node",
  "id": 836354385,
  "lat": 48.8716967,
  "lon": 2.3851067
},
{
  "type": "node",
  "id": 836362405,
  "lat": 48.8716065,
  "lon": 2.3851903
},
{
  "type": "node",
  "id": 836363114,
  "lat": 48.8716056,
  "lon": 2.3849705
},
{
  "type": "node",
  "id": 836363666,
  "lat": 48.8715903,
  "lon": 2.3849317
},
{
  "type": "node",
  "id": 836392628,
  "lat": 48.8716458,
  "lon": 2.3851882
},
{
  "type": "node",
  "id": 836404338,
  "lat": 48.8715437,
  "lon": 2.3850258
},
{
  "type": "node",
  "id": 1048260583,
  "lat": 47.0745213,
  "lon": 15.4437009
},
{
  "type": "node",
  "id": 1048260587,
  "lat": 47.0744915,
  "lon": 15.4435600
},
{
  "type": "node",
  "id": 1048260590,
  "lat": 47.0746367,
  "lon": 15.4436483
},
{
  "type": "node",
  "id": 1048260594,
  "lat": 47.0746504,
  "lon": 15.4437133
},
{
  "type": "node",
  "id": 1048260603,
  "lat": 47.0748491,
  "lon": 15.4436227
},
{
  "type": "node",
  "id": 1048260608,
  "lat": 47.0748056,
  "lon": 15.4434169
},
{
  "type": "node",
  "id": 1052262593,
  "lat": 47.0756907,
  "lon": 15.4465668
},
{
  "type": "node",
  "id": 1052262596,
  "lat": 47.0756406,
  "lon": 15.4464939
},
{
  "type": "node",
  "id": 1052262615,
  "lat": 47.0757154,
  "lon": 15.4466338
},
{
  "type": "node",
  "id": 1052262617,
  "lat": 47.0756515,
  "lon": 15.4465037,
  "tags": {
    "access": "public",
    "barrier": "gate",
    "opening_hours": "10:00-17:00"
  }
},
{
  "type": "node",
  "id": 1091651523,
  "lat": 47.0785206,
  "lon": 15.4473891
},
{
  "type": "node",
  "id": 1091651527,
  "lat": 47.0784807,
  "lon": 15.4472464
},
{
  "type": "node",
  "id": 1091651543,
  "lat": 47.0784536,
  "lon": 15.4471256
},
{
  "type": "node",
  "id": 1091653187,
  "lat": 47.0780884,
  "lon": 15.4472569
},
{
  "type": "node",
  "id": 1091927315,
  "lat": 47.0781709,
  "lon": 15.4473786
},
{
  "type": "node",
  "id": 1091927320,
  "lat": 47.0782229,
  "lon": 15.4475150
},
{
  "type": "node",
  "id": 1091927323,
  "lat": 47.0781947,
  "lon": 15.4475382
},
{
  "type": "node",
  "id": 1091927349,
  "lat": 47.0782429,
  "lon": 15.4476608
},
{
  "type": "node",
  "id": 1091927356,
  "lat": 47.0781433,
  "lon": 15.4474013
},
{
  "type": "node",
  "id": 1092787882,
  "lat": 47.0784371,
  "lon": 15.4470345
},
{
  "type": "node",
  "id": 1227885730,
  "lat": 47.0706352,
  "lon": 15.4261847
},
{
  "type": "node",
  "id": 1227896048,
  "lat": 47.0706425,
  "lon": 15.4263469
},
{
  "type": "node",
  "id": 1240682002,
  "lat": 47.0692653,
  "lon": 15.4302126
},
{
  "type": "node",
  "id": 1240682004,
  "lat": 47.0692548,
  "lon": 15.4304256
},
{
  "type": "node",
  "id": 1240682006,
  "lat": 47.0689380,
  "lon": 15.4304722
},
{
  "type": "node",
  "id": 1240682008,
  "lat": 47.0693164,
  "lon": 15.4305201
},
{
  "type": "node",
  "id": 1240682011,
  "lat": 47.0693215,
  "lon": 15.4304326
},
{
  "type": "node",
  "id": 1240682018,
  "lat": 47.0692787,
  "lon": 15.4300404
},
{
  "type": "node",
  "id": 1240682019,
  "lat": 47.0691015,
  "lon": 15.4304936
},
{
  "type": "node",
  "id": 1240682022,
  "lat": 47.0692851,
  "lon": 15.4299398
},
{
  "type": "node",
  "id": 1240682035,
  "lat": 47.0688056,
  "lon": 15.4298767
},
{
  "type": "node",
  "id": 1240706485,
  "lat": 47.0694523,
  "lon": 15.4291499
},
{
  "type": "node",
  "id": 1240706491,
  "lat": 47.0696295,
  "lon": 15.4291539
},
{
  "type": "node",
  "id": 1240706494,
  "lat": 47.0696286,
  "lon": 15.4292344
},
{
  "type": "node",
  "id": 1240713742,
  "lat": 47.0688960,
  "lon": 15.4305285
},
{
  "type": "node",
  "id": 1240713751,
  "lat": 47.0688969,
  "lon": 15.4305124
},
{
  "type": "node",
  "id": 1240713783,
  "lat": 47.0689336,
  "lon": 15.4305335
},
{
  "type": "node",
  "id": 1240713790,
  "lat": 47.0687734,
  "lon": 15.4304904
},
{
  "type": "node",
  "id": 1287617230,
  "lat": 52.5031866,
  "lon": 13.4119553,
  "tags": {
    "barrier": "gate"
  }
},
{
  "type": "node",
  "id": 1399832174,
  "lat": 47.0997318,
  "lon": 15.4526267
},
{
  "type": "node",
  "id": 1399832177,
  "lat": 47.0997432,
  "lon": 15.4526682
},
{
  "type": "node",
  "id": 1399832188,
  "lat": 47.1000713,
  "lon": 15.4525581
},
{
  "type": "node",
  "id": 1399832202,
  "lat": 47.1001674,
  "lon": 15.4527420
},
{
  "type": "node",
  "id": 1399832203,
  "lat": 47.1003119,
  "lon": 15.4526865
},
{
  "type": "node",
  "id": 1524469163,
  "lat": 52.5032053,
  "lon": 13.4119305
},
{
  "type": "node",
  "id": 1524469164,
  "lat": 52.5033029,
  "lon": 13.4108740,
  "tags": {
    "barrier": "entrance",
    "bicycle": "no",
    "foot": "yes"
  }
},
{
  "type": "node",
  "id": 1717961989,
  "lat": 41.5103861,
  "lon": 1.7030502
},
{
  "type": "node",
  "id": 1717961995,
  "lat": 41.5102121,
  "lon": 1.7035085
},
{
  "type": "node",
  "id": 1717961997,
  "lat": 41.5106767,
  "lon": 1.7034524
},
{
  "type": "node",
  "id": 1717961998,
  "lat": 41.5106393,
  "lon": 1.7022413
},
{
  "type": "node",
  "id": 1717962002,
  "lat": 41.5107964,
  "lon": 1.7020003
},
{
  "type": "node",
  "id": 1717962004,
  "lat": 41.5111127,
  "lon": 1.7001676
},
{
  "type": "node",
  "id": 1717962005,
  "lat": 41.5109350,
  "lon": 1.7018430
},
{
  "type": "node",
  "id": 1717962007,
  "lat": 41.5113949,
  "lon": 1.7000039
},
{
  "type": "node",
  "id": 1717962009,
  "lat": 41.5115561,
  "lon": 1.7009264
},
{
  "type": "node",
  "id": 1717962010,
  "lat": 41.5112116,
  "lon": 1.7031819
},
{
  "type": "node",
  "id": 1717962011,
  "lat": 41.5114253,
  "lon": 1.7030766
},
{
  "type": "node",
  "id": 1717962012,
  "lat": 41.5118801,
  "lon": 1.7020167
},
{
  "type": "node",
  "id": 1717962013,
  "lat": 41.5123195,
  "lon": 1.7029391
},
{
  "type": "node",
  "id": 1839628597,
  "lat": 47.1007597,
  "lon": 15.4530099
},
{
  "type": "node",
  "id": 1941168612,
  "lat": 47.0397211,
  "lon": 15.3875220
},
{
  "type": "node",
  "id": 1941168615,
  "lat": 47.0400947,
  "lon": 15.3866536
},
{
  "type": "node",
  "id": 1941168619,
  "lat": 47.0402357,
  "lon": 15.3881811
},
{
  "type": "node",
  "id": 1941168623,
  "lat": 47.0406216,
  "lon": 15.3868604
},
{
  "type": "node",
  "id": 1992891212,
  "lat": 47.0746378,
  "lon": 15.4434934,
  "tags": {
    "entrance": "main",
    "wheelchair": "yes"
  }
},
{
  "type": "node",
  "id": 2014738553,
  "lat": 52.3952961,
  "lon": 13.1196030
},
{
  "type": "node",
  "id": 2014738606,
  "lat": 52.3953269,
  "lon": 13.1198760
},
{
  "type": "node",
  "id": 2014738661,
  "lat": 52.3954096,
  "lon": 13.1195686
},
{
  "type": "node",
  "id": 2014738690,
  "lat": 52.3954405,
  "lon": 13.1198415
},
{
  "type": "node",
  "id": 2300037661,
  "lat": 41.5104574,
  "lon": 1.7034433
},
{
  "type": "node",
  "id": 2300037674,
  "lat": 41.5110444,
  "lon": 1.7006370
},
{
  "type": "node",
  "id": 2300037847,
  "lat": 41.5121209,
  "lon": 1.7030819
},
{
  "type": "node",
  "id": 2300037849,
  "lat": 41.5121253,
  "lon": 1.7034225
},
{
  "type": "node",
  "id": 2300037851,
  "lat": 41.5122362,
  "lon": 1.7036180
},
{
  "type": "node",
  "id": 2300037868,
  "lat": 41.5124846,
  "lon": 1.7034906
},
{
  "type": "node",
  "id": 2342663725,
  "lat": 47.0759561,
  "lon": 15.4462003
},
{
  "type": "node",
  "id": 2342663726,
  "lat": 47.0759817,
  "lon": 15.4462617
},
{
  "type": "node",
  "id": 2342663728,
  "lat": 47.0760214,
  "lon": 15.4463570
},
{
  "type": "node",
  "id": 2432859819,
  "lat": 47.0704414,
  "lon": 15.4259987
},
{
  "type": "node",
  "id": 2432859820,
  "lat": 47.0704708,
  "lon": 15.4264149
},
{
  "type": "node",
  "id": 2432859825,
  "lat": 47.0706037,
  "lon": 15.4260105
},
{
  "type": "node",
  "id": 2432859828,
  "lat": 47.0706403,
  "lon": 15.4264105
},
{
  "type": "node",
  "id": 2432859830,
  "lat": 47.0706414,
  "lon": 15.4260132
},
{
  "type": "node",
  "id": 2432859833,
  "lat": 47.0708059,
  "lon": 15.4262028,
  "tags": {
    "entrance": "main"
  }
},
{
  "type": "node",
  "id": 2432859837,
  "lat": 47.0708215,
  "lon": 15.4263562
},
{
  "type": "node",
  "id": 2432859838,
  "lat": 47.0708233,
  "lon": 15.4263093,
  "tags": {
    "entrance": "yes"
  }
},
{
  "type": "node",
  "id": 2432859841,
  "lat": 47.0708272,
  "lon": 15.4262050
},
{
  "type": "node",
  "id": 2510385155,
  "lat": 47.0782870,
  "lon": 15.4476759
},
{
  "type": "node",
  "id": 2510385156,
  "lat": 47.0785218,
  "lon": 15.4473943
},
{
  "type": "node",
  "id": 2510385157,
  "lat": 47.0785048,
  "lon": 15.4473326
},
{
  "type": "node",
  "id": 2510410093,
  "lat": 47.1006952,
  "lon": 15.4527313
},
{
  "type": "node",
  "id": 2510425459,
  "lat": 47.0940015,
  "lon": 15.4395132
},
{
  "type": "node",
  "id": 2510425460,
  "lat": 47.0936338,
  "lon": 15.4392710
},
{
  "type": "node",
  "id": 2510425461,
  "lat": 47.0935306,
  "lon": 15.4393240
},
{
  "type": "node",
  "id": 2510447791,
  "lat": 47.0903995,
  "lon": 15.5062025
},
{
  "type": "node",
  "id": 2510447792,
  "lat": 47.0903618,
  "lon": 15.5059989
},
{
  "type": "node",
  "id": 2510447793,
  "lat": 47.0902541,
  "lon": 15.5059000
},
{
  "type": "node",
  "id": 2510447794,
  "lat": 47.0902138,
  "lon": 15.5060226
},
{
  "type": "node",
  "id": 2510447795,
  "lat": 47.0902501,
  "lon": 15.5062776
},
{
  "type": "node",
  "id": 2644068110,
  "lat": 52.3952842,
  "lon": 13.1197020
},
{
  "type": "node",
  "id": 2644068112,
  "lat": 52.3952941,
  "lon": 13.1197892
},
{
  "type": "node",
  "id": 2644068114,
  "lat": 52.3953065,
  "lon": 13.1196953
},
{
  "type": "node",
  "id": 2644068116,
  "lat": 52.3953164,
  "lon": 13.1197824
},
{
  "type": "node",
  "id": 2956371258,
  "lat": 47.0701174,
  "lon": 15.4488052
},
{
  "type": "node",
  "id": 2956371259,
  "lat": 47.0701083,
  "lon": 15.4488427
},
{
  "type": "node",
  "id": 2956371260,
  "lat": 47.0700827,
  "lon": 15.4488186
},
{
  "type": "node",
  "id": 2956371261,
  "lat": 47.0700918,
  "lon": 15.4487864
},
{
  "type": "node",
  "id": 3149014999,
  "lat": 47.0994613,
  "lon": 15.4528427
},
{
  "type": "node",
  "id": 3149015000,
  "lat": 47.0994970,
  "lon": 15.4533770
},
{
  "type": "node",
  "id": 3149015001,
  "lat": 47.1003712,
  "lon": 15.4534086
},
{
  "type": "node",
  "id": 3149015002,
  "lat": 47.1005123,
  "lon": 15.4526264
},
{
  "type": "node",
  "id": 3149015003,
  "lat": 47.1011459,
  "lon": 15.4526756
},
{
  "type": "node",
  "id": 3149090413,
  "lat": 47.0324225,
  "lon": 15.3976572
},
{
  "type": "node",
  "id": 3149090414,
  "lat": 47.0324330,
  "lon": 15.3982071
},
{
  "type": "node",
  "id": 3149090415,
  "lat": 47.0323153,
  "lon": 15.3979847
},
{
  "type": "node",
  "id": 3149090416,
  "lat": 47.0323144,
  "lon": 15.3982257
},
{
  "type": "node",
  "id": 3149090417,
  "lat": 47.0323103,
  "lon": 15.3976643
},
{
  "type": "node",
  "id": 3149090418,
  "lat": 47.0323137,
  "lon": 15.3979233
},
{
  "type": "node",
  "id": 3149306911,
  "lat": 47.0935809,
  "lon": 15.4394106
},
{
  "type": "node",
  "id": 3149306912,
  "lat": 47.0936114,
  "lon": 15.4394092
},
{
  "type": "node",
  "id": 3149306913,
  "lat": 47.0936343,
  "lon": 15.4394232
},
{
  "type": "node",
  "id": 3149306914,
  "lat": 47.0936753,
  "lon": 15.4394204
},
{
  "type": "node",
  "id": 3149306915,
  "lat": 47.0936929,
  "lon": 15.4393551
},
{
  "type": "node",
  "id": 3149306916,
  "lat": 47.0937215,
  "lon": 15.4394348
},
{
  "type": "node",
  "id": 3149306917,
  "lat": 47.0937347,
  "lon": 15.4393036
},
{
  "type": "node",
  "id": 3149306918,
  "lat": 47.0937868,
  "lon": 15.4393015
},
{
  "type": "node",
  "id": 3149306919,
  "lat": 47.0938365,
  "lon": 15.4396137
},
{
  "type": "node",
  "id": 3149306920,
  "lat": 47.0938966,
  "lon": 15.4393055
},
{
  "type": "node",
  "id": 3149306921,
  "lat": 47.0939414,
  "lon": 15.4398140
},
{
  "type": "node",
  "id": 3149306922,
  "lat": 47.0940139,
  "lon": 15.4397160
},
{
  "type": "node",
  "id": 3149306923,
  "lat": 47.0940663,
  "lon": 15.4396333
},
{
  "type": "node",
  "id": 3149497675,
  "lat": 47.0694460,
  "lon": 15.4292362
},
{
  "type": "node",
  "id": 3328121350,
  "lat": 52.3954264,
  "lon": 13.1197166,
  "tags": {
    "entrance": "main"
  }
},
{
  "type": "node",
  "id": 3394642990,
  "lat": 47.1197291,
  "lon": 15.3379066
},
{
  "type": "node",
  "id": 3394642991,
  "lat": 47.1198192,
  "lon": 15.3382223
},
{
  "type": "node",
  "id": 3394642992,
  "lat": 47.1198224,
  "lon": 15.3382333
},
{
  "type": "node",
  "id": 3394643394,
  "lat": 47.1199732,
  "lon": 15.3381691
},
{
  "type": "node",
  "id": 3394643395,
  "lat": 47.1200208,
  "lon": 15.3377346
},
{
  "type": "node",
  "id": 3394643396,
  "lat": 47.1201062,
  "lon": 15.3376004
},
{
  "type": "node",
  "id": 3394643398,
  "lat": 47.1208107,
  "lon": 15.3373875
},
{
  "type": "node",
  "id": 3394643399,
  "lat": 47.1208445,
  "lon": 15.3374021
},
{
  "type": "node",
  "id": 3394643400,
  "lat": 47.1208445,
  "lon": 15.3379621
},
{
  "type": "node",
  "id": 3394643401,
  "lat": 47.1208524,
  "lon": 15.3378541
},
{
  "type": "node",
  "id": 3465129479,
  "lat": 46.7998409,
  "lon": 15.1926137
},
{
  "type": "node",
  "id": 3465129480,
  "lat": 46.7999295,
  "lon": 15.1924611
},
{
  "type": "node",
  "id": 3465129486,
  "lat": 46.8000998,
  "lon": 15.1934595
},
{
  "type": "node",
  "id": 3465129488,
  "lat": 46.8001179,
  "lon": 15.1937679
},
{
  "type": "node",
  "id": 3465130093,
  "lat": 46.8001350,
  "lon": 15.1924381
},
{
  "type": "node",
  "id": 3465130097,
  "lat": 46.8001815,
  "lon": 15.1931742
},
{
  "type": "node",
  "id": 3465130103,
  "lat": 46.8003839,
  "lon": 15.1922387
},
{
  "type": "node",
  "id": 3465130109,
  "lat": 46.8005043,
  "lon": 15.1941783
},
{
  "type": "node",
  "id": 3465130115,
  "lat": 46.8005428,
  "lon": 15.1940165
},
{
  "type": "node",
  "id": 3465130120,
  "lat": 46.8006054,
  "lon": 15.1926843
},
{
  "type": "node",
  "id": 3465130123,
  "lat": 46.8006423,
  "lon": 15.1942792
},
{
  "type": "node",
  "id": 3465130128,
  "lat": 46.8007628,
  "lon": 15.1945442
},
{
  "type": "node",
  "id": 3465130129,
  "lat": 46.8007401,
  "lon": 15.1930855
},
{
  "type": "node",
  "id": 3465130136,
  "lat": 46.8009249,
  "lon": 15.1945700
},
{
  "type": "node",
  "id": 3465130137,
  "lat": 46.8009008,
  "lon": 15.1940376
},
{
  "type": "node",
  "id": 3465130138,
  "lat": 46.8012476,
  "lon": 15.1943190
},
{
  "type": "node",
  "id": 3465130139,
  "lat": 46.8012829,
  "lon": 15.1941971
},
{
  "type": "node",
  "id": 3465130140,
  "lat": 46.8012669,
  "lon": 15.1940446
},
{
  "type": "node",
  "id": 3465337215,
  "lat": 46.8005785,
  "lon": 15.1932090
},
{
  "type": "node",
  "id": 3465337216,
  "lat": 46.8009985,
  "lon": 15.1943186
},
{
  "type": "node",
  "id": 3465337217,
  "lat": 46.8011394,
  "lon": 15.1935935
},
{
  "type": "node",
  "id": 3482366856,
  "lat": 47.0782101,
  "lon": 15.4475256,
  "tags": {
    "entrance": "yes",
    "wheelchair": "yes"
  }
},
{
  "type": "node",
  "id": 3482366857,
  "lat": 47.0782630,
  "lon": 15.4476677
},
{
  "type": "node",
  "id": 3493366452,
  "lat": 47.1156265,
  "lon": 16.3477781
},
{
  "type": "node",
  "id": 3493366455,
  "lat": 47.1159921,
  "lon": 16.3473261
},
{
  "type": "node",
  "id": 3493366456,
  "lat": 47.1159996,
  "lon": 16.3484296
},
{
  "type": "node",
  "id": 3493366467,
  "lat": 47.1163651,
  "lon": 16.3479776
},
{
  "type": "way",
  "id": 61399924,
  "nodes": [
    766636183,
    1287617230,
    1524469163,
    766636185,
    1524469164,
    766636187,
    766636190,
    766636191,
    444726201,
    444726203,
    766636183
  ],
  "tags": {
    "garden:type": "community",
    "identity": "commons",
    "leisure": "garden",
    "name": "Prinzessinnengarten",
    "provides": "food+drink;learning_opportunities;community;participation",
    "url": "http://prinzessinnengarten.net/"
  }
},
{
  "type": "way",
  "id": 70002965,
  "nodes": [
    836363666,
    836331243,
    836352929,
    836404338,
    836362405,
    836350266,
    836392628,
    836342509,
    836341691,
    836354385,
    836329093,
    836363114,
    836363666
  ],
  "tags": {
    "building": "yes",
    "identity": "collaborative_economy",
    "interaction": "renting;cousing",
    "name": "Maison de l’Air",
    "provides": "spaces;learning_opportunities;energy;community",
    "source": "cadastre-dgi-fr source : Direction Générale des Impôts - Cadastre. Mise à jour : 2010",
    "wall": "no"
  }
},
{
  "type": "way",
  "id": 90346253,
  "nodes": [
    1048260608,
    1992891212,
    1048260587,
    1048260583,
    1048260590,
    1048260594,
    1048260603,
    1048260608
  ],
  "tags": {
    "addr:city": "Graz",
    "addr:country": "AT",
    "addr:housenumber": "1",
    "addr:postcode": "8010",
    "addr:street": "Stadtpark",
    "amenity": "arts_centre",
    "building": "yes",
    "commons": "culture",
    "drink:club-mate": "yes",
    "fee": "no",
    "identity": "commons",
    "mode_of_organisation:ownership_structure": "association",
    "mode_of_organisation:self_managed": "yes",
    "name": "Forum Stadtpark",
    "provides": "culture;spaces",
    "website": "http://forum.mur.at",
    "wheelchair": "yes",
    "wikipedia": "de:Forum Stadtpark"
  }
},
{
  "type": "way",
  "id": 159687510,
  "nodes": [
    1717961989,
    1717961998,
    1717962002,
    1717962005,
    2300037674,
    1717962004,
    1717962007,
    1717962009,
    1717962012,
    1717962013,
    2300037868,
    2300037851,
    2300037849,
    2300037847,
    1717962011,
    1717962010,
    1717961997,
    2300037661,
    1717961995,
    1717961989
  ],
  "tags": {
    "identity": "solidarity_economy;permaculture;alternatives_to_the_cash_economy;commons;p2p_economy;collaborative_economy",
    "interaction": "cousing;diy_and_dit",
    "landuse": "industrial",
    "mode_of_organisation:decision_making": "by_consensus",
    "mode_of_organisation:ownership_structure": "Cooperative",
    "mode_of_organisation:purpose": "not_for_private_profit",
    "mode_of_organisation:scale_of_activity": "regional",
    "mode_of_organisation:self_managed": "yes",
    "name": "Ca la fou",
    "official_name": "Colonia Ecoindustrial Postcapitalista Ca La Fou",
    "old_name": "Colonis marçal",
    "provides": "food+drink;housing;spaces;objects_of_utility;learning_opportunities;energy;community;participation",
    "short_name": "calafou",
    "source": "locale",
    "website": "http://calafou.org/"
  }
},
{
  "type": "way",
  "id": 183701517,
  "nodes": [
    1941168612,
    1941168619,
    1941168623,
    1941168615,
    1941168612
  ],
  "tags": {
    "access": "yes",
    "addr:city": "Graz",
    "addr:country": "AT",
    "addr:postcode": "8054",
    "addr:street": "Krottendorferstraße",
    "diet:vegan": "yes",
    "diet:vegetarian": "yes",
    "fee": "no",
    "garden:type": "community",
    "identity": "commons",
    "interaction": "renting;gifting;diy_and_dit",
    "internet_access": "no",
    "leisure": "garden",
    "mode_of_organisation:members": "users",
    "mode_of_organisation:ownership_structure": "Vereinsträgerschaft",
    "mode_of_organisation:purpose": "non_profit",
    "mode_of_organisation:scale_of_activity": "local",
    "name": "Interkultureller Landschaftsgarten Graz West",
    "operator": "Verein \"Palaver unterm Apfelbaum\"",
    "payment:donations": "yes",
    "production_input:money:crowdfunding": "yes",
    "production_input:money:gift": "yes",
    "production_input:natural_recources:democratic": "yes",
    "production_input:natural_recources:regional": "yes",
    "production_input:natural_resources:sustainable": "partially",
    "provides": "food+drink;culture;spaces;learning_opportunities;community;participation",
    "start_date": "2008",
    "website": "http://www.gartenpolylog.org/gardens/palaver-unterm-apfelbaum",
    "wheelchair": "limited"
  }
},
{
  "type": "way",
  "id": 190868099,
  "nodes": [
    2644068110,
    2644068114,
    2014738553,
    2014738661,
    3328121350,
    2014738690,
    2014738606,
    2644068116,
    2644068112,
    2644068110
  ],
  "tags": {
    "addr:city": "Potsdam",
    "addr:country": "DE",
    "addr:housenumber": "164",
    "addr:postcode": "14482",
    "addr:street": "Rudolf-Breitscheid-Straße",
    "addr:suburb": "Babelsberg",
    "amenity": "bicycle_repair_station",
    "building": "yes",
    "contact:email": "info@foerderverein-inwole.de",
    "contact:fax": "+49 331 70 47 66 81",
    "contact:phone": "+49 331 70 47 66 80",
    "identity": "commons",
    "interaction": "bartering;gifting",
    "long_operator": "Verein zur Förderung innovativer Wohn- und Lebensformen e.V.",
    "mode_of_organisation:scale_of_activity": "local",
    "mode_of_organisation:self_managed": "yes",
    "name": "Projekthaus Potsdam",
    "operator": "INWOLE e.V.",
    "provides": "food+drink;culture;spaces;learning_opportunities;community;participation",
    "shop": "variety_store",
    "topic": "food+drink;culture;housing;community;participation",
    "tourism": "hostel",
    "website": "http://projekthaus-potsdam.de"
  }
},
{
  "type": "way",
  "id": 225493325,
  "nodes": [
    2342663728,
    2342663726,
    2342663725,
    1052262596,
    1052262617,
    1052262593,
    1052262615,
    2342663728
  ],
  "tags": {
    "access": "public",
    "addr:city": "Graz",
    "addr:country": "AT",
    "addr:housenumber": "3",
    "addr:postcode": "8010",
    "addr:street": "Zinzendorfgasse",
    "diet:vegetarian": "yes",
    "fee": "yes",
    "garden:type": "community",
    "identity": "commons",
    "interaction": "gifting",
    "leisure": "garden",
    "mode_of_organisation:decision_making": "...",
    "mode_of_organisation:hierarchy_chef": "flat_hierarchy",
    "mode_of_organisation:purpose": "non_profit",
    "mode_of_organisation:scale_of_activity": "local",
    "mode_of_organisation:self_managed": "yes",
    "name": "Allmende Leech",
    "opening_hours": "24/7",
    "operator": "KHG",
    "organic": "yes",
    "payment:donations": "yes",
    "production_input:knowledge:public_domain": "yes",
    "production_input:money:crowdfunding": "yes",
    "production_input:money:gift": "yes",
    "production_input:natural_recources:democratic": "yes",
    "production_input:natural_recources:fair": "yes",
    "production_input:natural_recources:regional": "yes",
    "production_input:natural_resources:sustainable": "yes",
    "provides": "food+drink;culture;spaces;learning_opportunities;community;participation",
    "smoking:outside": "yes",
    "start_date": "11-2011",
    "website": "http://www.gartenpolylog.org/gardens/allmende-leech",
    "wheelchair": "no"
  }
},
{
  "type": "way",
  "id": 235212312,
  "nodes": [
    2432859830,
    2432859825,
    2432859819,
    2432859820,
    2432859828,
    1227896048,
    2432859837,
    2432859838,
    2432859841,
    2432859833,
    1227885730,
    2432859830
  ],
  "tags": {
    "diet:vegetarian": "yes",
    "garden:type": "community",
    "identity": "commons",
    "interaction": "diy_and_dit",
    "leisure": "garden",
    "mode_of_organisation:self_managed": "yes",
    "name": "Gemeinschaftsgarten Niesenberger",
    "opening_hours": "24/7",
    "payment:donations": "yes",
    "production_input:knowledge:public_domain": "yes",
    "production_input:money:crowdfunding": "yes",
    "production_input:money:gift": "yes",
    "production_input:natural_recources:democratic": "yes",
    "production_input:natural_recources:fair": "yes",
    "production_input:natural_recources:regional": "yes",
    "production_input:natural_resources:sustainable": "yes",
    "provides": "food+drink;spaces;learning_opportunities"
  }
},
{
  "type": "way",
  "id": 243658710,
  "nodes": [
    1091651527,
    1091651543,
    1092787882,
    1091653187,
    1091927356,
    1091927315,
    1091927320,
    3482366856,
    1091927323,
    1091927349,
    3482366857,
    2510385155,
    833763318,
    2510385156,
    1091651523,
    2510385157,
    1091651527
  ],
  "tags": {
    "access": "public",
    "addr:city": "Graz",
    "addr:country": "AT",
    "addr:housenumber": "25",
    "addr:postcode": "8010",
    "addr:street": "Attemsgasse",
    "contact:name": "Verein Gemeinschaftsprojekt Attemsgarten",
    "diet:vegetarian": "yes",
    "garden:type": "community",
    "identity": "transition_initiative;commons",
    "interaction": "gifting",
    "internet_access": "yes",
    "internet_access:fee": "Eduroam",
    "leisure": "garden",
    "mode_of_organisation:decision_making": "by_consensus",
    "mode_of_organisation:hierarchy_chef": "no",
    "mode_of_organisation:members": "open",
    "mode_of_organisation:ownership_structure": "Commons",
    "mode_of_organisation:purpose": "non_profit",
    "mode_of_organisation:scale_of_activity": "local",
    "mode_of_organisation:self_managed": "yes",
    "name": "Gemeinschaftsprojekt Attemsgarten",
    "opening_hours": "24/7",
    "operator": "Verein Gemeinschaftsprojekt - Attemsgarten",
    "organic": "yes",
    "payment:donations": "yes",
    "production_input:knowledge:public_domain": "yes",
    "production_input:money:crowdfunding": "yes",
    "production_input:money:gift": "yes",
    "production_input:natural_recources:democratic": "yes",
    "production_input:natural_recources:fair": "yes",
    "production_input:natural_recources:regional": "yes",
    "production_input:natural_resources:sustainable": "yes",
    "provides": "food+drink;culture;spaces;learning_opportunities;community;participation",
    "smoking": "yes",
    "smoking:outside": "no",
    "start_date": "04-2013",
    "website": "http://atgarten.wordpress.com",
    "wheelchair": "yes"
  }
},
{
  "type": "way",
  "id": 243661170,
  "nodes": [
    1240682022,
    1240682035,
    1240713790,
    1240713751,
    1240713742,
    1240713783,
    1240682006,
    1240682019,
    1240682008,
    1240682011,
    1240682004,
    1240682002,
    1240682018,
    1240682022
  ],
  "tags": {
    "addr:city": "Graz",
    "addr:country": "AT",
    "addr:housenumber": "9",
    "addr:postcode": "8020",
    "addr:street": "Grenadiergasse",
    "diet:vegetarian": "yes",
    "fee": "no",
    "garden:type": "community",
    "identity": "commons",
    "leisure": "garden",
    "name": "Garden Lab Graz",
    "production_input:money:crowdfunding": "yes",
    "production_input:money:gift": "yes",
    "production_input:natural_recources:democratic": "yes",
    "production_input:natural_recources:fair": "yes",
    "production_input:natural_recources:regional": "yes",
    "production_input:natural_resources:sustainable": "yes",
    "provides": "food+drink;spaces;community;participation",
    "start_date": "2013",
    "url": "http://gardenlab-graz.over-blog.com/"
  }
},
{
  "type": "way",
  "id": 243663277,
  "nodes": [
    3149306919,
    3149306921,
    3149306922,
    3149306923,
    2510425459,
    3149306920,
    3149306918,
    3149306917,
    3149306915,
    2510425460,
    2510425461,
    3149306911,
    3149306912,
    3149306913,
    3149306914,
    3149306916,
    3149306919
  ],
  "tags": {
    "addr:city": "Graz",
    "addr:country": "AT",
    "addr:housenumber": "94",
    "addr:postcode": "8010",
    "addr:street": "Hochsteingasse",
    "diet:vegetarian": "yes",
    "garden:type": "community",
    "identity": "commons",
    "interaction": "gifting;diy_and_dit",
    "leisure": "garden",
    "name": "Hochsteingarten",
    "opening_hours": "24/7",
    "payment:donations": "yes",
    "production_input:knowledge:public_domain": "yes",
    "production_input:money:crowdfunding": "yes",
    "production_input:money:gift": "yes",
    "production_input:natural_recources:democratic": "yes",
    "production_input:natural_recources:fair": "yes",
    "production_input:natural_recources:regional": "yes",
    "production_input:natural_resources:sustainable": "yes",
    "provides": "food+drink;culture;spaces;learning_opportunities;community;participation;land",
    "provides:land": "rurban",
    "start_date": "2012"
  }
},
{
  "type": "way",
  "id": 243665947,
  "nodes": [
    2510447791,
    2510447792,
    2510447793,
    2510447794,
    2510447795,
    2510447791
  ],
  "tags": {
    "addr:city": "Graz",
    "addr:country": "AT",
    "addr:housenumber": "238",
    "addr:postcode": "8047",
    "addr:street": "Riesstraße",
    "contact:email": "riesparadies@lists.lnxnt.org",
    "contact:fax": "+43 316 30 19 60",
    "contact:phone": "+43 316 30 19 60",
    "garden:type": "community",
    "identity": "commons",
    "interaction": "cousing",
    "leisure": "garden",
    "name": "Ries Paradies",
    "provides": "food+drink;community;participation",
    "start_date": "2013",
    "website": "https://riesparadies.wordpress.com/"
  }
},
{
  "type": "way",
  "id": 292112699,
  "nodes": [
    2956371258,
    2956371259,
    2956371260,
    2956371261,
    2956371258
  ],
  "tags": {
    "addr:city": "Graz",
    "addr:country": "AT",
    "addr:postcode": "8010",
    "addr:street": "Rechbauerstraße",
    "diet:vegetarian": "yes",
    "garden:type": "community",
    "identity": "commons",
    "interaction": "gifting;diy_and_dit",
    "leisure": "garden",
    "name": "RechbäuerInnen",
    "opening_hours": "24/7",
    "payment:donations": "yes",
    "production_input:knowledge:public_domain": "yes",
    "production_input:money:crowdfunding": "yes",
    "production_input:money:gift": "yes",
    "production_input:natural_recources:democratic": "yes",
    "production_input:natural_recources:fair": "yes",
    "production_input:natural_recources:regional": "yes",
    "production_input:natural_resources:sustainable": "yes",
    "provides": "food+drink;culture;learning_opportunities;community;participation",
    "start_date": "2014"
  }
},
{
  "type": "way",
  "id": 309560361,
  "nodes": [
    437517022,
    3149015003,
    2510410093,
    3149015002,
    1399832203,
    1399832202,
    1399832188,
    1399832177,
    1399832174,
    3149014999,
    3149015000,
    3149015001,
    437517021,
    1839628597,
    437517022
  ],
  "tags": {
    "addr:city": "Graz",
    "addr:country": "AT",
    "addr:housenumber": "102",
    "addr:postcode": "8043",
    "addr:street": "Mariagrüner Straße",
    "diet:vegetarian": "yes",
    "garden:type": "community",
    "identity": "commons",
    "interaction": "diy_and_dit",
    "leisure": "garden",
    "name": "Ökohof",
    "opening_hours": "24/7",
    "payment:donations": "yes",
    "production_input:knowledge:public_domain": "yes",
    "production_input:money:crowdfunding": "yes",
    "production_input:money:gift": "yes",
    "production_input:natural_recources:democratic": "yes",
    "production_input:natural_recources:fair": "yes",
    "production_input:natural_recources:regional": "yes",
    "production_input:natural_resources:sustainable": "yes",
    "provides": "food+drink;spaces"
  }
},
{
  "type": "way",
  "id": 309570122,
  "nodes": [
    3149090417,
    3149090413,
    3149090414,
    3149090416,
    3149090415,
    3149090418,
    3149090417
  ],
  "tags": {
    "addr:city": "Graz",
    "addr:country": "AT",
    "addr:postcode": "8054",
    "addr:street": "Salfeldstraße",
    "contact:email": "scherz.anneliese@gmx.at",
    "contact:name": "Anneliese Scherz",
    "diet:vegetarian": "yes",
    "fee": "yes",
    "garden:type": "community",
    "identity": "commons",
    "interaction": "bartering;gifting",
    "leisure": "garden",
    "mode_of_organisation:members": "users",
    "mode_of_organisation:ownership_structure": "privat",
    "mode_of_organisation:purpose": "non_profit",
    "mode_of_organisation:scale_of_activity": "local",
    "mode_of_organisation:self_managed": "yes",
    "name": "Garten Mutter Erde",
    "payment:donations": "yes",
    "production_input:knowledge:public_domain": "yes",
    "production_input:money:crowdfunding": "yes",
    "production_input:money:gift": "yes",
    "production_input:natural_recources:democratic": "yes",
    "production_input:natural_recources:fair": "yes",
    "production_input:natural_recources:regional": "yes",
    "production_input:natural_resources:sustainable": "yes",
    "provides": "food+drink;culture;spaces;learning_opportunities;community;participation",
    "start_date": "2009",
    "website": "http://www.gartenpolylog.org/gardens/muttererde"
  }
},
{
  "type": "way",
  "id": 309613728,
  "nodes": [
    1240706491,
    1240706494,
    3149497675,
    1240706485,
    1240706491
  ],
  "tags": {
    "addr:city": "Graz",
    "addr:country": "AT",
    "addr:postcode": "8020",
    "addr:street": "Kernstockgasse",
    "diet:vegetarian": "yes",
    "garden:type": "community",
    "identity": "commons",
    "interaction": "diy_and_dit",
    "leisure": "garden",
    "mode_of_organisation:self_managed": "yes",
    "name": "Gottes Acker",
    "opening_hours": "24/7",
    "operator": "Büro der Nachbarschaften",
    "owner": "Pfarre St. Andrä",
    "production_input:money:crowdfunding": "yes",
    "production_input:money:gift": "yes",
    "production_input:natural_recources:democratic": "yes",
    "production_input:natural_recources:fair": "yes",
    "production_input:natural_recources:regional": "yes",
    "production_input:natural_resources:sustainable": "yes",
    "provides": "food+drink;spaces",
    "start_date": "2011"
  }
},
{
  "type": "way",
  "id": 332348593,
  "nodes": [
    3394643399,
    3394643401,
    3394643400,
    3394643394,
    3394642992,
    3394642991,
    3394642990,
    3394643395,
    3394643396,
    3394643398,
    3394643399
  ],
  "tags": {
    "contact:email": "info@sonnenfleck.at",
    "description": "GemeinschaftsGarten Straßengler Sonnenfleck",
    "fixme": "Lage anhand Bildes auf der Homepage und Geoimage geschätzt!",
    "garden:type": "community",
    "identity": "commons",
    "interaction": "cousing",
    "leisure": "garden",
    "mode_of_organisation:ownership_structure": "Verein",
    "mode_of_organisation:scale_of_activity": "local",
    "name": "Sonnenfleck",
    "provides": "spaces;participation;land",
    "source": "geoimage.at",
    "start_date": "2014",
    "website": "http://sonnenfleck.at/"
  }
},
{
  "type": "way",
  "id": 339329245,
  "nodes": [
    3465129488,
    3465129486,
    3465130097,
    3465129479,
    3465129480,
    3465130093,
    3465130103,
    3465130120,
    3465130129,
    3465337215,
    3465130137,
    3465337217,
    3465130140,
    3465130139,
    3465130138,
    3465337216,
    3465130136,
    3465130128,
    3465130123,
    3465130109,
    3465130115,
    3465129488
  ],
  "tags": {
    "addr:city": "Deutschlandsberg",
    "addr:country": "AT",
    "addr:housenumber": "32",
    "addr:postcode": "8530",
    "addr:street": "Warnblickweg",
    "contact:email": "wieserhoisl@riseup.net",
    "contact:phone": "+43 3462 26870",
    "farm_boxes": "source",
    "farm_boxes:type": "csa",
    "identity": "economy_for_the_common_good",
    "landuse": "farmyard",
    "name": "Hofkollektiv Wieserhoisl",
    "organic": "yes",
    "provides": "food+drink;learning_opportunities;land",
    "provides:land": "rural",
    "start_date": "Spring 2008",
    "website": "http://www.wieserhoisl.at/"
  }
},
{
  "type": "way",
  "id": 342320594,
  "nodes": [
    3493366452,
    3493366456,
    3493366467,
    3493366455,
    3493366452
  ],
  "tags": {
    "addr:city": "Güssing",
    "addr:country": "AT",
    "addr:housenumber": "57",
    "addr:postcode": "7540",
    "addr:street": "Punitz",
    "description": "Spezialisierung auf alte Sorten",
    "identity": "permaculture;subsistence_economy",
    "interaction": "bartering;gifting;cousing;diy_and_dit",
    "landuse": "farmyard",
    "name": "Lichtlwichtlhof",
    "organic": "yes",
    "provides": "food+drink;culture;learning_opportunities;community;spirituality",
    "shop": "garden_centre",
    "start_date": "2015"
  }
}

  ]
}
